[{"OBJECT_NAME":"STARLINK-37218","OBJECT_ID":"2026-063Z","EPOCH":"2026-04-06T04:00:05.000256","MEAN_MOTION":15.87443586,"ECCENTRICITY":0.00015074,"INCLINATION":97.2798,"RA_OF_ASC_NODE":237.2516,"ARG_OF_PERICENTER":59.2692,"MEAN_ANOMALY":298.858,"EPHEMERIS_TYPE":0,"CLASSIFICATION_TYPE":"U","NORAD_CAT_ID":68403,"ELEMENT_SET_NO":999,"REV_AT_EPOCH":287,"BSTAR":-0.0088947563,"MEAN_MOTION_DOT":-0.02026124,"MEAN_MOTION_DDOT":0},{"OBJECT_NAME":"STARLINK-37188","OBJECT_ID":"2026-063AA","EPOCH":"2026-04-06T04:00:05.000256","MEAN_MOTION":15.87351127,"ECCENTRICITY":0.00015576,"INCLINATION":97.2796,"RA_OF_ASC_NODE":237.2493,"ARG_OF_PERICENTER":60.5778,"MEAN_ANOMALY":293.7092,"EPHEMERIS_TYPE":0,"CLASSIFICATION_TYPE":"U","NORAD_CAT_ID":68404,"ELEMENT_SET_NO":999,"REV_AT_EPOCH":287,"BSTAR":-0.0089216104,"MEAN_MOTION_DOT":-0.0202343,"MEAN_MOTION_DDOT":0},{"OBJECT_NAME":"SHIYAN-33","OBJECT_ID":"2026-064A","EPOCH":"2026-04-06T17:29:42.509472","MEAN_MOTION":15.23264388,"ECCENTRICITY":0.0013927,"INCLINATION":97.4647,"RA_OF_ASC_NODE":172.6227,"ARG_OF_PERICENTER":191.4558,"MEAN_ANOMALY":168.6364,"EPHEMERIS_TYPE":0,"CLASSIFICATION_TYPE":"U","NORAD_CAT_ID":68405,"ELEMENT_SET_NO":999,"REV_AT_EPOCH":161,"BSTAR":0.00028601,"MEAN_MOTION_DOT":6.724e-5,"MEAN_MOTION_DDOT":0},{"OBJECT_NAME":"LPNTSAT-001 (IOD-1)","OBJECT_ID":"2026-065A","EPOCH":"2026-04-01T04:04:57.158400","MEAN_MOTION":15.18233471,"ECCENTRICITY":0.0015408,"INCLINATION":97.4137,"RA_OF_ASC_NODE":333.2788,"ARG_OF_PERICENTER":273.4606,"MEAN_ANOMALY":86.4866,"EPHEMERIS_TYPE":0,"CLASSIFICATION_TYPE":"U","NORAD_CAT_ID":68408,"ELEMENT_SET_NO":999,"REV_AT_EPOCH":57,"BSTAR":0.00023469,"MEAN_MOTION_DOT":4.75e-5,"MEAN_MOTION_DDOT":0},{"OBJECT_NAME":"LPNTSAT-002 (IOD-2)","OBJECT_ID":"2026-065B","EPOCH":"2026-04-02T10:08:21.772608","MEAN_MOTION":15.18229138,"ECCENTRICITY":0.00127389,"INCLINATION":97.4055,"RA_OF_ASC_NODE":334.508,"ARG_OF_PERICENTER":262.3917,"MEAN_ANOMALY":97.5871,"EPHEMERIS_TYPE":0,"CLASSIFICATION_TYPE":"U","NORAD_CAT_ID":68409,"ELEMENT_SET_NO":999,"REV_AT_EPOCH":74,"BSTAR":9.6695715e-5,"MEAN_MOTION_DOT":1.915e-5,"MEAN_MOTION_DDOT":0},{"OBJECT_NAME":"ELECTRON KICK STAGE R/B","OBJECT_ID":"2026-065D","EPOCH":"2026-04-06T17:14:47.273280","MEAN_MOTION":15.92863498,"ECCENTRICITY":0.0142452,"INCLINATION":97.4112,"RA_OF_ASC_NODE":339.6465,"ARG_OF_PERICENTER":358.1733,"MEAN_ANOMALY":1.9001,"EPHEMERIS_TYPE":0,"CLASSIFICATION_TYPE":"U","NORAD_CAT_ID":68411,"ELEMENT_SET_NO":999,"REV_AT_EPOCH":148,"BSTAR":0.0003037,"MEAN_MOTION_DOT":0.00284956,"MEAN_MOTION_DDOT":2.3078e-6},{"OBJECT_NAME":"XINZHENGCHENG-01","OBJECT_ID":"2026-066A","EPOCH":"2026-04-06T07:00:19.740960","MEAN_MOTION":14.88407376,"ECCENTRICITY":0.00268173,"INCLINATION":84.9615,"RA_OF_ASC_NODE":273.4901,"ARG_OF_PERICENTER":140.8758,"MEAN_ANOMALY":219.4411,"EPHEMERIS_TYPE":0,"CLASSIFICATION_TYPE":"U","NORAD_CAT_ID":68412,"ELEMENT_SET_NO":999,"REV_AT_EPOCH":103,"BSTAR":0.00017298232,"MEAN_MOTION_DOT":1.643e-5,"MEAN_MOTION_DDOT":0},{"OBJECT_NAME":"LIJIAN-2 R/B","OBJECT_ID":"2026-066B","EPOCH":"2026-04-06T17:55:43.224384","MEAN_MOTION":15.42351994,"ECCENTRICITY":0.0448037,"INCLINATION":84.6958,"RA_OF_ASC_NODE":272.7816,"ARG_OF_PERICENTER":185.177,"MEAN_ANOMALY":174.478,"EPHEMERIS_TYPE":0,"CLASSIFICATION_TYPE":"U","NORAD_CAT_ID":68413,"ELEMENT_SET_NO":999,"REV_AT_EPOCH":111,"BSTAR":0.00026852,"MEAN_MOTION_DOT":0.03528675,"MEAN_MOTION_DDOT":-1.5237e-6},{"OBJECT_NAME":"2026-066C","OBJECT_ID":"2026-066C","EPOCH":"2026-04-06T07:00:01.658304","MEAN_MOTION":14.88493144,"ECCENTRICITY":0.00274065,"INCLINATION":84.9615,"RA_OF_ASC_NODE":273.4899,"ARG_OF_PERICENTER":141.2318,"MEAN_ANOMALY":219.088,"EPHEMERIS_TYPE":0,"CLASSIFICATION_TYPE":"U","NORAD_CAT_ID":68414,"ELEMENT_SET_NO":999,"REV_AT_EPOCH":103,"BSTAR":0.00019185928,"MEAN_MOTION_DOT":1.823e-5,"MEAN_MOTION_DDOT":0},{"OBJECT_NAME":"SL-4 R/B","OBJECT_ID":"2026-061S","EPOCH":"2026-04-06T05:56:09.832992","MEAN_MOTION":15.93052475,"ECCENTRICITY":0.0023289,"INCLINATION":82.3047,"RA_OF_ASC_NODE":93.3608,"ARG_OF_PERICENTER":20.2701,"MEAN_ANOMALY":339.9492,"EPHEMERIS_TYPE":0,"CLASSIFICATION_TYPE":"U","NORAD_CAT_ID":68537,"ELEMENT_SET_NO":999,"REV_AT_EPOCH":215,"BSTAR":0.00064917733,"MEAN_MOTION_DOT":0.00231831,"MEAN_MOTION_DDOT":1.8822708e-5},{"OBJECT_NAME":"TACHELES","OBJECT_ID":"2026-069B","EPOCH":"2026-04-02T13:12:59.999616","MEAN_MOTION":1.02407762,"ECCENTRICITY":0.8430033,"INCLINATION":28.3448,"RA_OF_ASC_NODE":359.8421,"ARG_OF_PERICENTER":77.7942,"MEAN_ANOMALY":194.3023,"EPHEMERIS_TYPE":0,"CLASSIFICATION_TYPE":"U","NORAD_CAT_ID":68539,"ELEMENT_SET_NO":999,"REV_AT_EPOCH":0,"BSTAR":-0.0071298,"MEAN_MOTION_DOT":-0.00190496,"MEAN_MOTION_DDOT":1.1727e-6},{"OBJECT_NAME":"SWC-1","OBJECT_ID":"2026-069C","EPOCH":"2026-04-02T12:20:34.000224","MEAN_MOTION":1.01595625,"ECCENTRICITY":0.8375109,"INCLINATION":28.3462,"RA_OF_ASC_NODE":359.8168,"ARG_OF_PERICENTER":77.163,"MEAN_ANOMALY":217.7352,"EPHEMERIS_TYPE":0,"CLASSIFICATION_TYPE":"U","NORAD_CAT_ID":68540,"ELEMENT_SET_NO":999,"REV_AT_EPOCH":0,"BSTAR":-1.7117,"MEAN_MOTION_DOT":-0.00154659,"MEAN_MOTION_DDOT":0},{"OBJECT_NAME":"K-RADCUBE","OBJECT_ID":"2026-069D","EPOCH":"2026-04-02T16:16:32.999808","MEAN_MOTION":1.02517944,"ECCENTRICITY":0.8450105,"INCLINATION":28.3341,"RA_OF_ASC_NODE":359.8703,"ARG_OF_PERICENTER":77.6642,"MEAN_ANOMALY":243.1767,"EPHEMERIS_TYPE":0,"CLASSIFICATION_TYPE":"U","NORAD_CAT_ID":68541,"ELEMENT_SET_NO":999,"REV_AT_EPOCH":3,"BSTAR":-1.7218e-5,"MEAN_MOTION_DOT":-0.00078411,"MEAN_MOTION_DDOT":1.9505e-6},{"OBJECT_NAME":"MERIDIAN-M 21L","OBJECT_ID":"2026-071A","EPOCH":"2026-04-03T07:41:47.992704","MEAN_MOTION":1.98618778,"ECCENTRICITY":0.7241466,"INCLINATION":62.7917,"RA_OF_ASC_NODE":238.8364,"ARG_OF_PERICENTER":284.9481,"MEAN_ANOMALY":10.7459,"EPHEMERIS_TYPE":0,"CLASSIFICATION_TYPE":"U","NORAD_CAT_ID":68571,"ELEMENT_SET_NO":999,"REV_AT_EPOCH":1,"BSTAR":0.0016587,"MEAN_MOTION_DOT":-1.265e-5,"MEAN_MOTION_DDOT":0},{"OBJECT_NAME":"FREGAT R/B","OBJECT_ID":"2026-071B","EPOCH":"2026-04-03T07:42:42.175872","MEAN_MOTION":2.01041412,"ECCENTRICITY":0.73138199,"INCLINATION":63.0589,"RA_OF_ASC_NODE":237.9448,"ARG_OF_PERICENTER":284.9724,"MEAN_ANOMALY":10.3188,"EPHEMERIS_TYPE":0,"CLASSIFICATION_TYPE":"U","NORAD_CAT_ID":68572,"ELEMENT_SET_NO":999,"REV_AT_EPOCH":1,"BSTAR":0.00035051942,"MEAN_MOTION_DOT":-1.541e-5,"MEAN_MOTION_DDOT":0}]
